[
  {"street": "Apple Blossom Ln", "city": "Springfield", "zip": "62701", "state": "Illinois"},
  {"street": "Applewood Dr", "city": "Madison", "zip": "53703", "state": "Wisconsin"},
  {"street": "Apple St", "city": "Austin", "zip": "73301", "state": "Texas"},
  {"street": "Appleton Ave", "city": "Salem", "zip": "97301", "state": "Oregon"},
  {"street": "Applewood Cir", "city": "Concord", "zip": "03301", "state": "New Hampshire"},
  {"street": "Apple Ln", "city": "Bismarck", "zip": "58501", "state": "North Dakota"},
  {"street": "Apple Grove", "city": "Columbus", "zip": "43215", "state": "Ohio"},
  {"street": "Appleby St", "city": "Richmond", "zip": "23218", "state": "Virginia"},
  {"street": "Apple Ave", "city": "Hartford", "zip": "06103", "state": "Connecticut"},
  {"street": "Apple Valley Rd", "city": "Helena", "zip": "59601", "state": "Montana"},
  {"street": "Applewood Ln", "city": "Santa Fe", "zip": "87501", "state": "New Mexico"},
  {"street": "Applewood St", "city": "Juneau", "zip": "99801", "state": "Alaska"},
  {"street": "Applewood Blvd", "city": "Phoenix", "zip": "85001", "state": "Arizona"},
  {"street": "Applewood Ave", "city": "Little Rock", "zip": "72201", "state": "Arkansas"},
  {"street": "Applewood Pl", "city": "Sacramento", "zip": "94203", "state": "California"},
  {"street": "Applewood Ct", "city": "Denver", "zip": "80201", "state": "Colorado"},
  {"street": "Cedar Ln", "city": "Madison", "zip": "53703", "state": "Wisconsin"},
  {"street": "Cedarwood Dr", "city": "Springfield", "zip": "62701", "state": "Illinois"},
  {"street": "Cedar St", "city": "Austin", "zip": "73301", "state": "Texas"},
  {"street": "Cedarwood Ave", "city": "Salem", "zip": "97301", "state": "Oregon"},
  {"street": "Cedar Ln", "city": "Concord", "zip": "03301", "state": "New Hampshire"},
  {"street": "Cedar Grove", "city": "Bismarck", "zip": "58501", "state": "North Dakota"},
  {"street": "Cedarby St", "city": "Columbus", "zip": "43215", "state": "Ohio"},
  {"street": "Cedar Ave", "city": "Richmond", "zip": "23218", "state": "Virginia"},
  {"street": "Cedar Valley Rd", "city": "Hartford", "zip": "06103", "state": "Connecticut"},
  {"street": "Cedarwood Ln", "city": "Helena", "zip": "59601", "state": "Montana"},
  {"street": "Cedarwood St", "city": "Santa Fe", "zip": "87501", "state": "New Mexico"},
  {"street": "Cedarwood Blvd", "city": "Juneau", "zip": "99801", "state": "Alaska"},
  {"street": "Cedarwood Ave", "city": "Phoenix", "zip": "85001", "state": "Arizona"},
  {"street": "Cedarwood Pl", "city": "Little Rock", "zip": "72201", "state": "Arkansas"},
  {"street": "Cedarwood Ct", "city": "Sacramento", "zip": "94203", "state": "California"},
  {"street": "Oak Ln", "city": "Denver", "zip": "80201", "state": "Colorado"},
  {"street": "Oakwood Dr", "city": "Madison", "zip": "53703", "state": "Wisconsin"},
  {"street": "Oak St", "city": "Springfield", "zip": "62701", "state": "Illinois"},
  {"street": "Oakwood Ave", "city": "Austin", "zip": "73301", "state": "Texas"},
  {"street": "Oak Ln", "city": "Salem", "zip": "97301", "state": "Oregon"},
  {"street": "Oak Grove", "city": "Concord", "zip": "03301", "state": "New Hampshire"},
  {"street": "Oakby St", "city": "Bismarck", "zip": "58501", "state": "North Dakota"},
  {"street": "Oak Ave", "city": "Columbus", "zip": "43215", "state": "Ohio"},
  {"street": "Oak Valley Rd", "city": "Richmond", "zip": "23218", "state": "Virginia"},
  {"street": "Oakwood Ln", "city": "Hartford", "zip": "06103", "state": "Connecticut"},
  {"street": "Oakwood St", "city": "Helena", "zip": "59601", "state": "Montana"},
  {"street": "Oakwood Blvd", "city": "Santa Fe", "zip": "87501", "state": "New Mexico"},
  {"street": "Oakwood Ave", "city": "Juneau", "zip": "99801", "state": "Alaska"},
  {"street": "Oakwood Pl", "city": "Phoenix", "zip": "85001", "state": "Arizona"},
  {"street": "Oakwood Ct", "city": "Little Rock", "zip": "72201", "state": "Arkansas"},
  {"street": "Pine Ln", "city": "Sacramento", "zip": "94203", "state": "California"},
  {"street": "Pinewood Dr", "city": "Denver", "zip": "80201", "state": "Colorado"},
  {"street": "Pine St", "city": "Madison", "zip": "53703", "state": "Wisconsin"},
  {"street": "Pinewood Ave", "city": "Springfield", "zip": "62701", "state": "Illinois"},
  {"street": "Pine Ln", "city": "Austin", "zip": "73301", "state": "Texas"},
  {"street": "Pine Grove", "city": "Salem", "zip": "97301", "state": "Oregon"},
  {"street": "Pineby St", "city": "Concord", "zip": "03301", "state": "New Hampshire"},
  {"street": "Pine Ave", "city": "Bismarck", "zip": "58501", "state": "North Dakota"},
  {"street": "Pine Valley Rd", "city": "Columbus", "zip": "43215", "state": "Ohio"},
  {"street": "Pinewood Ln", "city": "Richmond", "zip": "23218", "state": "Virginia"},
  {"street": "Pinewood St", "city": "Hartford", "zip": "06103", "state": "Connecticut"},
  {"street": "Pinewood Blvd", "city": "Helena", "zip": "59601", "state": "Montana"},
  {"street": "Pinewood Ave", "city": "Santa Fe", "zip": "87501", "state": "New Mexico"},
  {"street": "Pinewood Pl", "city": "Juneau", "zip": "99801", "state": "Alaska"},
  {"street": "Pinewood Ct", "city": "Phoenix", "zip": "85001", "state": "Arizona"},
  {"street": "Fir Ln", "city": "Little Rock", "zip": "72201", "state": "Arkansas"},
  {"street": "Firwood Dr", "city": "Sacramento", "zip": "94203", "state": "California"},
  {"street": "Fir St", "city": "Denver", "zip": "80201", "state": "Colorado"},
  {"street": "Firwood Ave", "city": "Madison", "zip": "53703", "state": "Wisconsin"},
  {"street": "Fir Ln", "city": "Springfield", "zip": "62701", "state": "Illinois"},
  {"street": "Fir Grove", "city": "Austin", "zip": "73301", "state": "Texas"},
  {"street": "Firby St", "city": "Salem", "zip": "97301", "state": "Oregon"},
  {"street": "Fir Ave", "city": "Concord", "zip": "03301", "state": "New Hampshire"},
  {"street": "Fir Valley Rd", "city": "Bismarck", "zip": "58501", "state": "North Dakota"},
  {"street": "Firwood Ln", "city": "Columbus", "zip": "43215", "state": "Ohio"},
  {"street": "Firwood St", "city": "Richmond", "zip": "23218", "state": "Virginia"},
  {"street": "Firwood Blvd", "city": "Hartford", "zip": "06103", "state": "Connecticut"},
  {"street": "Firwood Ave", "city": "Helena", "zip": "59601", "state": "Montana"},
  {"street": "Firwood Pl", "city": "Santa Fe", "zip": "87501", "state": "New Mexico"},
  {"street": "Firwood Ct", "city": "Juneau", "zip": "99801", "state": "Alaska"},
  {"street": "Birch Ln", "city": "Phoenix", "zip": "85001", "state": "Arizona"},
  {"street": "Birchwood Dr", "city": "Little Rock", "zip": "72201", "state": "Arkansas"},
  {"street": "Birch St", "city": "Sacramento", "zip": "94203", "state": "California"},
  {"street": "Birchwood Ave", "city": "Denver", "zip": "80201", "state": "Colorado"},
  {"street": "Birch Ln", "city": "Madison", "zip": "53703", "state": "Wisconsin"},
  {"street": "Birch Grove", "city": "Springfield", "zip": "62701", "state": "Illinois"},
  {"street": "Birchby St", "city": "Austin", "zip": "73301", "state": "Texas"},
  {"street": "Birch Ave", "city": "Salem", "zip": "97301", "state": "Oregon"}
]